IRIDIUM 33 DEB          
1 34926U 97051NF  25064.51415834  .00026145  00000+0  71836-2 0  9998
2 34926  86.1436 137.7062 0109820 150.7195 274.8674 14.43338923824268
IRIDIUM 33 DEB          
1 34928U 97051NH  25065.38152643  .00042607  00000+0  32521-2 0  9991
2 34928  86.3787 106.8850 0012855 237.1470 122.8527 15.01738922620014
IRIDIUM 33 DEB          
1 34985U 97051NR  25065.55712883  .00002570  00000+0  79801-3 0  9999
2 34985  86.3764 176.6302 0023474  76.6649 295.0379 14.40598771831258
IRIDIUM 33 DEB          
1 35051U 97051NX  25064.90160968  .00003193  00000+0  89407-3 0  9998
2 35051  86.3258 131.5460 0005812 312.7478  47.3235 14.45847102830018
IRIDIUM 33 DEB          
1 35052U 97051NY  25064.46410796  .00001032  00000+0  33467-3 0  9992
2 35052  86.3344 141.4570 0009316 291.7640  68.2566 14.38013353832181
IRIDIUM 33 DEB          
1 35080U 97051PF  25065.34747384  .00042510  00000+0  89674-2 0  9993
2 35080  86.2207 183.1939 0091469  72.4942 288.6236 14.56576441819808
IRIDIUM 33 DEB          
1 35297U 97051PM  25065.04808528  .00003765  00000+0  11066-2 0  9997
2 35297  86.3942 182.7410 0014841   3.5318 356.5984 14.43487610663600
IRIDIUM 33 DEB          
1 35299U 97051PP  25065.22120671  .00005876  00000+0  18931-2 0  9998
2 35299  86.2958 155.4715 0053909 308.4273  80.6002 14.38303647822804
IRIDIUM 33 DEB          
1 35480U 97051QA  25064.47789567  .00003752  00000+0  10045-2 0  9990
2 35480  86.3603 147.1037 0011749 333.8908  26.1701 14.48013290829443
IRIDIUM 33 DEB          
1 35484U 97051QE  25064.89761106  .00019775  00000+0  24799-2 0  9992
2 35484  86.3647 122.6774 0027499  63.9615 296.4434 14.81824108578201
IRIDIUM 33 DEB          
1 35488U 97051QJ  25064.74674012  .00013632  00000+0  19586-2 0  9993
2 35488  86.3251  70.0962 0027367 313.1194  46.7736 14.76099149841046
IRIDIUM 33 DEB          
1 35616U 97051QN  25064.43819576  .00015746  00000+0  24248-2 0  9997
2 35616  86.3554 113.7067 0015390  97.3484 262.9483 14.73290433836278
IRIDIUM 33 DEB          
1 35618U 97051QQ  25065.43915916  .00002258  00000+0  56580-3 0  9994
2 35618  86.3401 116.3704 0027674 236.9353 122.9194 14.50784554613131
IRIDIUM 33 DEB          
1 35620U 97051QS  25065.47716261  .00009427  00000+0  31925-2 0  9993
2 35620  86.3887 335.1349 0162136  89.0038 272.9726 14.29503647559389
IRIDIUM 33 DEB          
1 35622U 97051QU  25065.39422574  .00016056  00000+0  20829-2 0  9994
2 35622  86.2117  38.6760 0013311 192.6092 319.7967 14.80624013831725
IRIDIUM 33 DEB          
1 35628U 97051RA  25065.49956091  .00008250  00000+0  16267-2 0  9995
2 35628  86.3593 133.9758 0013908 199.1141 160.9550 14.62339662823295
IRIDIUM 33 DEB          
1 35631U 97051RD  25065.47172616  .00002137  00000+0  58891-3 0  9998
2 35631  86.3703 142.0181 0015714 345.6178  25.3345 14.46407109831309
IRIDIUM 33 DEB          
1 35632U 97051RE  25064.95432393  .00111067  00000+0  61254-2 0  9991
2 35632  86.3901 253.1262 0038139 349.6992  10.3461 15.12859291818774
IRIDIUM 33 DEB          
1 35680U 97051RJ  25060.99238788  .00008449  00000+0  36345-2 0  9998
2 35680  86.1107 147.5542 0169127 109.0591  63.3907 14.17143935804385
IRIDIUM 33 DEB          
1 35744U 97051RX  25064.79728472  .00008207  00000+0  14815-2 0  9995
2 35744  86.3269  92.3136 0027159  91.8696 268.5628 14.66120086831931
IRIDIUM 33 DEB          
1 35797U 97051SF  25064.80557228  .00013643  00000+0  20676-2 0  9996
2 35797  86.3350  98.5512 0018279  77.8964 282.4300 14.73949676831755
IRIDIUM 33 DEB          
1 35809U 97051ST  25065.39846017  .00010031  00000+0  17183-2 0  9999
2 35809  86.3317 102.7198 0018216 134.6086 225.6618 14.68593812826686
IRIDIUM 33 DEB          
1 35846U 97051SW  25061.30378164  .00004093  00000+0  12478-2 0  9993
2 35846  86.3830 180.4254 0018624  45.0343 315.2363 14.41684715816201
IRIDIUM 33 DEB          
1 35848U 97051SY  25064.94146571  .00013106  00000+0  21271-2 0  9999
2 35848  86.3951 142.0552 0013215 118.7762 241.4783 14.71026383625372
IRIDIUM 33 DEB          
1 35850U 97051TA  25064.86884611  .00012454  00000+0  20104-2 0  9996
2 35850  86.3464 111.6728 0016009 107.6455 252.6511 14.71234445832813
IRIDIUM 33 DEB          
1 35911U 97051TU  25065.38201062  .00048305  00000+0  60612-2 0  9997
2 35911  86.2116 113.5100 0036150 296.1652  63.5853 14.81470953828743
IRIDIUM 33 DEB          
1 35915U 97051TY  25063.38320780  .00012212  00000+0  19288-2 0  9999
2 35915  86.3444 111.5197 0018295 112.7111 247.6042 14.72159087 39054
IRIDIUM 33 DEB          
1 35918U 97051UB  25064.63994104  .00007323  00000+0  19492-2 0  9992
2 35918  86.4074 196.4790 0026611  39.0532 332.7179 14.48217688811204
IRIDIUM 33 DEB          
1 35929U 97051UN  25064.80110636  .00026978  00000+0  30794-2 0  9998
2 35929  86.3358  84.3284 0015997 324.0940  35.9208 14.85872664835717
IRIDIUM 33 DEB          
1 36011U 97051US  25063.56661031  .00002537  00000+0  79546-3 0  9997
2 36011  86.3463 156.9173 0020767  79.5267 344.3839 14.40137365813700
IRIDIUM 33 DEB          
1 36012U 97051UT  25065.70122813  .00004903  00000+0  20561-2 0  9997
2 36012  86.4456  59.9561 0238891  70.3615 292.3180 14.11553188615111
IRIDIUM 33 DEB          
1 36028U 97051VK  25065.33294462  .00019004  00000+0  23677-2 0  9992
2 36028  86.3234  77.5404 0019951 339.5325  20.5095 14.82230496829389
IRIDIUM 33 DEB          
1 36080U 97051VM  25061.44219370  .00003080  00000+0  87784-3 0  9990
2 36080  86.3204 132.1164 0018131  39.4383 320.8135 14.44891619432923
IRIDIUM 33 DEB          
1 36083U 97051VQ  25065.50490877  .00002788  00000+0  84357-3 0  9994
2 36083  86.3488 155.0823 0028860  78.7233 281.7208 14.41811053813959
IRIDIUM 33 DEB          
1 36390U 97051VU  25065.72372861  .00011450  00000+0  19656-2 0  9996
2 36390  86.2963  67.5830 0035891  63.0512 297.4361 14.68183186621309
IRIDIUM 33 DEB          
1 36483U 97051VZ  25065.01108653  .00003608  00000+0  10430-2 0  9994
2 36483  86.3865 172.8923 0008038 354.4979   5.6132 14.44329944610776
IRIDIUM 33 DEB          
1 36490U 97051WG  25065.47514014  .00012503  00000+0  21461-2 0  9994
2 36490  86.3699 136.5216 0000874 162.6472 197.4773 14.68623463823460
IRIDIUM 33 DEB          
1 36493U 97051WK  25065.45378032  .00008251  00000+0  16941-2 0  9995
2 36493  86.3600 136.1795 0011572 213.6759 146.3717 14.60521374704060
IRIDIUM 33 DEB          
1 37548U 97051XH  25063.56569224  .00006275  00000+0  16694-2 0  9991
2 37548  86.3584 166.2525 0026705  64.5098 295.8864 14.48219748818098
IRIDIUM 33 DEB          
1 37550U 97051XK  25060.00172115  .00017020  00000+0  33852-2 0  9994
2 37550  86.3863 150.4107 0001370  70.8846 289.2513 14.62015707821361
IRIDIUM 33 DEB          
1 37562U 97051XX  25064.56149484  .00007690  00000+0  18547-2 0  9991
2 37562  86.3814 166.2508 0023316 339.0438  80.5497 14.52936402822267
IRIDIUM 33 DEB          
1 38017U 97051YD  25065.03845101  .00006072  00000+0  18603-2 0  9995
2 38017  86.3383 287.3015 0125476 311.3379  47.7074 14.37138511573435
IRIDIUM 33 DEB          
1 38022U 97051YJ  25064.93856769  .00003194  00000+0  10184-2 0  9999
2 38022  86.2740 139.5650 0045193 249.9363 109.6968 14.38946597651389
IRIDIUM 33 DEB          
1 38028U 97051YQ  25063.92954531  .00001262  00000+0  35392-3 0  9992
2 38028  86.3264 123.1122 0027195 347.4579  12.5942 14.45093491614090
IRIDIUM 33 DEB          
1 38228U 97051ZC  25064.59851946  .00001330  00000+0  53141-3 0  9992
2 38228  86.3010 168.3025 0064461  21.7808  41.6334 14.26621198811275
IRIDIUM 33 DEB          
1 38236U 97051ZL  25064.52075141  .00114800  00000+0  98575-2 0  9995
2 38236  86.2383  94.6634 0030426  59.2517 301.1703 14.96542605744349
IRIDIUM 33 DEB          
1 38241U 97051ZR  25065.45767920  .00003786  00000+0  92291-3 0  9997
2 38241  86.3208 114.4581 0000313 256.3177 103.7994 14.52498607561145
IRIDIUM 33 DEB          
1 38474U 97051AAB 25060.46399146  .00005098  00000+0  13373-2 0  9993
2 38474  86.3622 134.6689 0026742 326.9032  33.0497 14.48865289611704
IRIDIUM 33 DEB          
1 39777U 97051AAJ 25063.12848532  .00014541  00000+0  36935-2 0  9996
2 39777  85.9627 312.0603 0068852  57.6624 303.1221 14.49234218560669
IRIDIUM 33 DEB          
1 39778U 97051AAK 25065.55872619  .00005566  00000+0  13911-2 0  9995
2 39778  86.3849 164.9644 0007303 232.2782 127.7762 14.51381416566101
IRIDIUM 33 DEB          
1 39781U 97051AAN 25065.09806980  .00017143  00000+0  73322-2 0  9992
2 39781  86.3703  13.4096 0194834  82.2717 290.8002 14.15157730 41163
IRIDIUM 33 DEB          
1 39783U 97051AAQ 25059.21037933  .00088502  00000+0  11050-1 0  9991
2 39783  86.1420  37.9740 0033674 107.5424 263.6916 14.81512318679727
IRIDIUM 33 DEB          
1 40996U 97051ABJ 25060.46144668  .00030794  00000+0  41020-2 0  9993
2 40996  86.3604 133.1167 0006224 341.4570  30.0763 14.79503189582323
IRIDIUM 33 DEB          
1 40998U 97051ABL 25062.08311487  .00003250  00000+0  95108-3 0  9994
2 40998  86.3902 175.0641 0005532 303.7565 230.0717 14.43722486 25725
IRIDIUM 33 DEB          
1 46734U 97051ABR 25059.95136877  .00007492  00000+0  23708-2 0  9996
2 46734  86.2643 128.5366 0042536 192.2797 341.3277 14.39515806588812
IRIDIUM 33 DEB          
1 46965U 97051ABX 25061.58995565  .00004576  00000+0  99802-3 0  9990
2 46965  86.3331 106.8775 0019623 204.4529 307.8383 14.57591459581104
IRIDIUM 33 DEB          
1 46974U 97051ACG 25063.71765851  .00012247  00000+0  38651-2 0  9998
2 46974  86.3069 227.8846 0101054  37.4892 323.3296 14.37273763534334
IRIDIUM 33 DEB          
1 46979U 97051ACM 25065.04081261  .00034179  00000+0  56452-2 0  9994
2 46979  86.3476 176.9667 0041005 144.5279 215.8676 14.69669046312669
